{
    "links": {
        "self": "http://www.neowsapp.com/rest/v1/neo/54048884?api_key=iIulBulltgU6a56xZRHN4H3l9WmuAYTsLGpBGhQ2"
    },
    "id": "54048884",
    "neo_reference_id": "54048884",
    "name": "(2020 OE1)",
    "designation": "2020 OE1",
    "nasa_jpl_url": "http://ssd.jpl.nasa.gov/sbdb.cgi?sstr=54048884",
    "absolute_magnitude_h": 22.076,
    "estimated_diameter": {
        "kilometers": {
            "estimated_diameter_min": 0.1021774304,
            "estimated_diameter_max": 0.2284756801
        },
        "meters": {
            "estimated_diameter_min": 102.1774303857,
            "estimated_diameter_max": 228.4756801087
        },
        "miles": {
            "estimated_diameter_min": 0.0634900921,
            "estimated_diameter_max": 0.1419681618
        },
        "feet": {
            "estimated_diameter_min": 335.2278007066,
            "estimated_diameter_max": 749.5921503277
        }
    },
    "is_potentially_hazardous_asteroid": false,
    "close_approach_data": [
        {
            "close_approach_date": "2016-12-31",
            "close_approach_date_full": "2016-Dec-31 18:55",
            "epoch_date_close_approach": 1483210500000,
            "relative_velocity": {
                "kilometers_per_second": "19.0887780933",
                "kilometers_per_hour": "68719.6011358631",
                "miles_per_hour": "42699.6877168923"
            },
            "miss_distance": {
                "astronomical": "0.1931015269",
                "lunar": "75.1164939641",
                "kilometers": "28887577.117987703",
                "miles": "17949908.0728201814"
            },
            "orbiting_body": "Earth"
        },
        {
            "close_approach_date": "2020-06-28",
            "close_approach_date_full": "2020-Jun-28 17:34",
            "epoch_date_close_approach": 1593365640000,
            "relative_velocity": {
                "kilometers_per_second": "15.4727468238",
                "kilometers_per_hour": "55701.8885656098",
                "miles_per_hour": "34610.9873701146"
            },
            "miss_distance": {
                "astronomical": "0.1407516486",
                "lunar": "54.7523913054",
                "kilometers": "21056146.829548482",
                "miles": "13083682.9414417716"
            },
            "orbiting_body": "Earth"
        },
        {
            "close_approach_date": "2089-01-12",
            "close_approach_date_full": "2089-Jan-12 03:13",
            "epoch_date_close_approach": 3756337980000,
            "relative_velocity": {
                "kilometers_per_second": "14.5071114729",
                "kilometers_per_hour": "52225.6013022686",
                "miles_per_hour": "32450.9576536235"
            },
            "miss_distance": {
                "astronomical": "0.0845197628",
                "lunar": "32.8781877292",
                "kilometers": "12643976.487785236",
                "miles": "7856602.6740028168"
            },
            "orbiting_body": "Earth"
        },
        {
            "close_approach_date": "2092-07-08",
            "close_approach_date_full": "2092-Jul-08 03:36",
            "epoch_date_close_approach": 3866326560000,
            "relative_velocity": {
                "kilometers_per_second": "20.6007879347",
                "kilometers_per_hour": "74162.8365649405",
                "miles_per_hour": "46081.9025311432"
            },
            "miss_distance": {
                "astronomical": "0.2644217667",
                "lunar": "102.8600672463",
                "kilometers": "39556933.079956929",
                "miles": "24579538.4475424602"
            },
            "orbiting_body": "Earth"
        }
    ],
    "orbital_data": {
        "orbit_id": "7",
        "orbit_determination_date": "2020-08-04 06:11:57",
        "first_observation_date": "2020-07-17",
        "last_observation_date": "2020-07-27",
        "data_arc_in_days": 10,
        "observations_used": 34,
        "orbit_uncertainty": "8",
        "minimum_orbit_intersection": ".0865961",
        "jupiter_tisserand_invariant": "4.696",
        "epoch_osculation": "2459050.5",
        "eccentricity": ".4699632616928985",
        "semi_major_axis": "1.367777203517418",
        "inclination": "9.852092158741995",
        "ascending_node_longitude": "140.4674332093609",
        "orbital_period": "584.2806027285716",
        "perihelion_distance": ".7249721676831807",
        "perihelion_argument": "46.44437982213105",
        "aphelion_distance": "2.010582239351655",
        "perihelion_time": "2458970.664252682652",
        "mean_anomaly": "49.19018173806617",
        "mean_motion": ".6161423095663481",
        "equinox": "J2000",
        "orbit_class": {
            "orbit_class_type": "APO",
            "orbit_class_description": "Near-Earth asteroid orbits which cross the Earth’s orbit similar to that of 1862 Apollo",
            "orbit_class_range": "a (semi-major axis) > 1.0 AU; q (perihelion) < 1.017 AU"
        }
    },
    "is_sentry_object": false
}